{
"type": "FeatureCollection",
"name": "access_foot",
"crs": { "type": "name", "properties": { "name": "urn:ogc:def:crs:OGC:1.3:CRS84" } },
"features": [
{ "type": "Feature", "properties": { "name": "Emigration Canyon" }, "geometry": { "type": "Point", "coordinates": [ -111.771, 40.759 ] } },
{ "type": "Feature", "properties": { "name": "Mill Creek Canyon" }, "geometry": { "type": "Point", "coordinates": [ -111.759, 40.681 ] } },
{ "type": "Feature", "properties": { "name": "Big Cottonwood Canyon" }, "geometry": { "type": "Point", "coordinates": [ -111.766, 40.62 ] } },
{ "type": "Feature", "properties": { "name": "Little Cottonwood Canyon" }, "geometry": { "type": "Point", "coordinates": [ -111.761, 40.574 ] } },
{ "type": "Feature", "properties": { "name": "Corner Canyon (Draper)" }, "geometry": { "type": "Point", "coordinates": [ -111.818, 40.514 ] } },
{ "type": "Feature", "properties": { "name": "American Fork Canyon" }, "geometry": { "type": "Point", "coordinates": [ -111.699, 40.431 ] } },
{ "type": "Feature", "properties": { "name": "Provo Canyon (US-189)" }, "geometry": { "type": "Point", "coordinates": [ -111.646, 40.318 ] } },
{ "type": "Feature", "properties": { "name": "Hobble Creek Canyon" }, "geometry": { "type": "Point", "coordinates": [ -111.583, 40.192 ] } },
{ "type": "Feature", "properties": { "name": "Diamond Fork Canyon" }, "geometry": { "type": "Point", "coordinates": [ -111.478, 40.108 ] } },
{ "type": "Feature", "properties": { "name": "Spanish Fork Canyon (US-6)" }, "geometry": { "type": "Point", "coordinates": [ -111.55, 40.106 ] } },
{ "type": "Feature", "properties": { "name": "Daniels Canyon (US-40, near Heber)" }, "geometry": { "type": "Point", "coordinates": [ -111.371, 40.454 ] } },
{ "type": "Feature", "properties": { "name": "Soapstone/Wolf Creek (SR-35)" }, "geometry": { "type": "Point", "coordinates": [ -111.185, 40.535 ] } },
{ "type": "Feature", "properties": { "name": "Strawberry/Indian Creek Rd" }, "geometry": { "type": "Point", "coordinates": [ -111.23, 40.13 ] } }
]
}
