{
"type": "FeatureCollection",
"name": "wilderness_areas_approx",
"crs": { "type": "name", "properties": { "name": "urn:ogc:def:crs:OGC:1.3:CRS84" } },
"features": [
{ "type": "Feature", "properties": { "name": "Mount Olympus Wilderness", "note": "Foot/horse-only by federal wilderness designation -- no motorized/ATV access, ever" }, "geometry": { "type": "Polygon", "coordinates": [ [ [ -111.8, 40.68 ], [ -111.72, 40.7 ], [ -111.71, 40.715 ], [ -111.73, 40.72 ], [ -111.8, 40.705 ], [ -111.8, 40.68 ] ] ] } },
{ "type": "Feature", "properties": { "name": "Twin Peaks Wilderness", "note": "Foot/horse-only by federal wilderness designation -- no motorized/ATV access, ever" }, "geometry": { "type": "Polygon", "coordinates": [ [ [ -111.79, 40.62 ], [ -111.71, 40.635 ], [ -111.705, 40.615 ], [ -111.72, 40.585 ], [ -111.79, 40.595 ], [ -111.79, 40.62 ] ] ] } },
{ "type": "Feature", "properties": { "name": "Lone Peak Wilderness", "note": "Foot/horse-only by federal wilderness designation -- no motorized/ATV access, ever" }, "geometry": { "type": "Polygon", "coordinates": [ [ [ -111.79, 40.585 ], [ -111.7, 40.6 ], [ -111.68, 40.52 ], [ -111.7, 40.465 ], [ -111.78, 40.48 ], [ -111.8, 40.54 ], [ -111.79, 40.585 ] ] ] } },
{ "type": "Feature", "properties": { "name": "Mount Timpanogos Wilderness", "note": "Foot/horse-only by federal wilderness designation -- no motorized/ATV access, ever" }, "geometry": { "type": "Polygon", "coordinates": [ [ [ -111.7, 40.465 ], [ -111.62, 40.44 ], [ -111.6, 40.39 ], [ -111.63, 40.36 ], [ -111.69, 40.38 ], [ -111.71, 40.43 ], [ -111.7, 40.465 ] ] ] } }
]
}
